{
 "generated_at": "2026-06-21T08:57:48Z",
 "sources": [
  {
   "name": "CelesTrak",
   "url": "https://celestrak.org/NORAD/elements/",
   "license": "frei verfügbar; Attribution. Ursprünglich USSPACECOM/Space-Track."
  },
  {
   "name": "GCAT (J. McDowell, planet4589.org)",
   "url": "https://planet4589.org/space/gcat/",
   "license": "CC-BY 4.0"
  }
 ],
 "satellites": [
  {
   "norad": 49070,
   "name": "PLEIADES NEO 4",
   "intl": "2021-073E",
   "group": "resource",
   "gcat": {
    "class": null,
    "category": "IMG",
    "owner": "ADSTI",
    "state": "F"
   },
   "omm": {
    "OBJECT_NAME": "PLEIADES NEO 4",
    "OBJECT_ID": "2021-073E",
    "EPOCH": "2026-06-21T04:53:26.796768",
    "MEAN_MOTION": 14.81668144,
    "ECCENTRICITY": 0.0001336,
    "INCLINATION": 97.8929,
    "RA_OF_ASC_NODE": 246.9091,
    "ARG_OF_PERICENTER": 88.5035,
    "MEAN_ANOMALY": 271.6331,
    "EPHEMERIS_TYPE": 0,
    "CLASSIFICATION_TYPE": "U",
    "NORAD_CAT_ID": 49070,
    "ELEMENT_SET_NO": 999,
    "REV_AT_EPOCH": 26196,
    "BSTAR": 0.00003191,
    "MEAN_MOTION_DOT": 0.00000199,
    "MEAN_MOTION_DDOT": 0
   }
  },
  {
   "norad": 68835,
   "name": "PRSC-E03",
   "intl": "2026-092A",
   "group": "resource",
   "gcat": {
    "class": "C",
    "category": "IMG",
    "owner": "SUPA",
    "state": "PK"
   },
   "omm": {
    "OBJECT_NAME": "PRSC-E03",
    "OBJECT_ID": "2026-092A",
    "EPOCH": "2026-06-21T03:57:14.493312",
    "MEAN_MOTION": 15.06685873,
    "ECCENTRICITY": 0.0003038,
    "INCLINATION": 38.0017,
    "RA_OF_ASC_NODE": 66.2248,
    "ARG_OF_PERICENTER": 39.8962,
    "MEAN_ANOMALY": 320.2023,
    "EPHEMERIS_TYPE": 0,
    "CLASSIFICATION_TYPE": "U",
    "NORAD_CAT_ID": 68835,
    "ELEMENT_SET_NO": 999,
    "REV_AT_EPOCH": 855,
    "BSTAR": 0.00015028,
    "MEAN_MOTION_DOT": 0.00002165,
    "MEAN_MOTION_DDOT": 0
   }
  },
  {
   "norad": 62725,
   "name": "PRSC-EO1",
   "intl": "2025-012A",
   "group": "resource",
   "gcat": {
    "class": "C",
    "category": "IMG",
    "owner": "JHQJ/YINHE",
    "state": "CN"
   },
   "omm": {
    "OBJECT_NAME": "PRSC-EO1",
    "OBJECT_ID": "2025-012A",
    "EPOCH": "2026-06-21T05:07:41.043072",
    "MEAN_MOTION": 15.17650369,
    "ECCENTRICITY": 0.0005055,
    "INCLINATION": 97.422,
    "RA_OF_ASC_NODE": 244.595,
    "ARG_OF_PERICENTER": 234.4112,
    "MEAN_ANOMALY": 125.6651,
    "EPHEMERIS_TYPE": 0,
    "CLASSIFICATION_TYPE": "U",
    "NORAD_CAT_ID": 62725,
    "ELEMENT_SET_NO": 999,
    "REV_AT_EPOCH": 7880,
    "BSTAR": 0.00028377,
    "MEAN_MOTION_DOT": 0.00005647,
    "MEAN_MOTION_DDOT": 0
   }
  },
  {
   "norad": 65055,
   "name": "PRSC-S1",
   "intl": "2025-164A",
   "group": "resource",
   "gcat": {
    "class": "C",
    "category": "IMG-R",
    "owner": "SUPA",
    "state": "PK"
   },
   "omm": {
    "OBJECT_NAME": "PRSC-S1",
    "OBJECT_ID": "2025-164A",
    "EPOCH": "2026-06-21T05:48:05.972256",
    "MEAN_MOTION": 15.06486727,
    "ECCENTRICITY": 0.0005956,
    "INCLINATION": 41.1302,
    "RA_OF_ASC_NODE": 264.977,
    "ARG_OF_PERICENTER": 10.9607,
    "MEAN_ANOMALY": 349.1336,
    "EPHEMERIS_TYPE": 0,
    "CLASSIFICATION_TYPE": "U",
    "NORAD_CAT_ID": 65055,
    "ELEMENT_SET_NO": 999,
    "REV_AT_EPOCH": 4904,
    "BSTAR": 0.00023399,
    "MEAN_MOTION_DOT": 0.0000334,
    "MEAN_MOTION_DDOT": 0
   }
  },
  {
   "norad": 64055,
   "name": "QPS-SAR-10 (WADATSUMI-I)",
   "intl": "2025-104A",
   "group": "sar",
   "gcat": {
    "class": "B",
    "category": "IMG-R",
    "owner": "QPS",
    "state": "J"
   },
   "omm": {
    "OBJECT_NAME": "QPS-SAR-10 (WADATSUMI-I)",
    "OBJECT_ID": "2025-104A",
    "EPOCH": "2026-06-21T05:53:35.461248",
    "MEAN_MOTION": 15.01804483,
    "ECCENTRICITY": 0.0012791,
    "INCLINATION": 42.004,
    "RA_OF_ASC_NODE": 256.5978,
    "ARG_OF_PERICENTER": 359.6469,
    "MEAN_ANOMALY": 0.4347,
    "EPHEMERIS_TYPE": 0,
    "CLASSIFICATION_TYPE": "U",
    "NORAD_CAT_ID": 64055,
    "ELEMENT_SET_NO": 999,
    "REV_AT_EPOCH": 6004,
    "BSTAR": 0.00024878,
    "MEAN_MOTION_DOT": 0.00003116,
    "MEAN_MOTION_DDOT": 0
   }
  },
  {
   "norad": 64340,
   "name": "QPS-SAR-11 (YAMATSUMI-I)",
   "intl": "2025-125A",
   "group": "sar",
   "gcat": {
    "class": "B",
    "category": "IMG-R",
    "owner": "QPS",
    "state": "J"
   },
   "omm": {
    "OBJECT_NAME": "QPS-SAR-11 (YAMATSUMI-I)",
    "OBJECT_ID": "2025-125A",
    "EPOCH": "2026-06-20T09:12:38.225664",
    "MEAN_MOTION": 15.01628447,
    "ECCENTRICITY": 0.0009272,
    "INCLINATION": 42.0064,
    "RA_OF_ASC_NODE": 174.1491,
    "ARG_OF_PERICENTER": 155.0696,
    "MEAN_ANOMALY": 205.058,
    "EPHEMERIS_TYPE": 0,
    "CLASSIFICATION_TYPE": "U",
    "NORAD_CAT_ID": 64340,
    "ELEMENT_SET_NO": 999,
    "REV_AT_EPOCH": 5610,
    "BSTAR": 0.00024479,
    "MEAN_MOTION_DOT": 0.00003046,
    "MEAN_MOTION_DDOT": 0
   }
  },
  {
   "norad": 65116,
   "name": "QPS-SAR-12 (KUSHINADA-I)",
   "intl": "2025-169A",
   "group": "sar",
   "gcat": {
    "class": "B",
    "category": "IMG-R",
    "owner": "QPS",
    "state": "J"
   },
   "omm": {
    "OBJECT_NAME": "QPS-SAR-12 (KUSHINADA-I)",
    "OBJECT_ID": "2025-169A",
    "EPOCH": "2026-06-19T23:12:11.913120",
    "MEAN_MOTION": 15.00869415,
    "ECCENTRICITY": 0.00083832,
    "INCLINATION": 42.0125,
    "RA_OF_ASC_NODE": 0.6777,
    "ARG_OF_PERICENTER": 239.4771,
    "MEAN_ANOMALY": 120.5228,
    "EPHEMERIS_TYPE": 0,
    "CLASSIFICATION_TYPE": "U",
    "NORAD_CAT_ID": 65116,
    "ELEMENT_SET_NO": 999,
    "REV_AT_EPOCH": 4783,
    "BSTAR": 0.00029833491,
    "MEAN_MOTION_DOT": 0.00003677,
    "MEAN_MOTION_DDOT": 0
   }
  },
  {
   "norad": 66316,
   "name": "QPS-SAR-14 (YACHIHOKO-I)",
   "intl": "2025-252A",
   "group": "sar",
   "gcat": {
    "class": "B",
    "category": "IMG-R",
    "owner": "QPS",
    "state": "J"
   },
   "omm": {
    "OBJECT_NAME": "QPS-SAR-14 (YACHIHOKO-I)",
    "OBJECT_ID": "2025-252A",
    "EPOCH": "2026-06-20T04:36:24.898176",
    "MEAN_MOTION": 14.99709657,
    "ECCENTRICITY": 0.00074245,
    "INCLINATION": 42.0038,
    "RA_OF_ASC_NODE": 115.3015,
    "ARG_OF_PERICENTER": 275.3647,
    "MEAN_ANOMALY": 84.6331,
    "EPHEMERIS_TYPE": 0,
    "CLASSIFICATION_TYPE": "U",
    "NORAD_CAT_ID": 66316,
    "ELEMENT_SET_NO": 999,
    "REV_AT_EPOCH": 3396,
    "BSTAR": 0.0003097004,
    "MEAN_MOTION_DOT": 0.00003706,
    "MEAN_MOTION_DDOT": 0
   }
  },
  {
   "norad": 67228,
   "name": "QPS-SAR-15 (SUKUNAMI-I)",
   "intl": "2025-307A",
   "group": "sar",
   "gcat": {
    "class": "B",
    "category": "IMG-R",
    "owner": "QPS",
    "state": "J"
   },
   "omm": {
    "OBJECT_NAME": "QPS-SAR-15 (SUKUNAMI-I)",
    "OBJECT_ID": "2025-307A",
    "EPOCH": "2026-06-20T08:54:01.166976",
    "MEAN_MOTION": 14.99011605,
    "ECCENTRICITY": 0.0009823,
    "INCLINATION": 42.0038,
    "RA_OF_ASC_NODE": 210.4149,
    "ARG_OF_PERICENTER": 9.3677,
    "MEAN_ANOMALY": 350.7329,
    "EPHEMERIS_TYPE": 0,
    "CLASSIFICATION_TYPE": "U",
    "NORAD_CAT_ID": 67228,
    "ELEMENT_SET_NO": 999,
    "REV_AT_EPOCH": 2716,
    "BSTAR": 0.00023445,
    "MEAN_MOTION_DOT": 0.00002708,
    "MEAN_MOTION_DDOT": 0
   }
  },
  {
   "norad": 58578,
   "name": "QPS-SAR-5 (TSUKUYOMI-I)",
   "intl": "2023-196A",
   "group": "sar",
   "gcat": {
    "class": "B",
    "category": "IMG-R",
    "owner": "QPS",
    "state": "J"
   },
   "omm": {
    "OBJECT_NAME": "QPS-SAR-5 (TSUKUYOMI-I)",
    "OBJECT_ID": "2023-196A",
    "EPOCH": "2026-06-21T04:08:14.299008",
    "MEAN_MOTION": 15.22664084,
    "ECCENTRICITY": 0.0027166,
    "INCLINATION": 42.0112,
    "RA_OF_ASC_NODE": 353.2008,
    "ARG_OF_PERICENTER": 306.8839,
    "MEAN_ANOMALY": 52.9505,
    "EPHEMERIS_TYPE": 0,
    "CLASSIFICATION_TYPE": "U",
    "NORAD_CAT_ID": 58578,
    "ELEMENT_SET_NO": 999,
    "REV_AT_EPOCH": 13885,
    "BSTAR": 0.00044266,
    "MEAN_MOTION_DOT": 0.00010399,
    "MEAN_MOTION_DDOT": 0
   }
  },
  {
   "norad": 59447,
   "name": "QPS-SAR-7 (TSUKUYOMI-II)",
   "intl": "2024-066F",
   "group": "sar",
   "gcat": {
    "class": "B",
    "category": "IMG-R",
    "owner": "QPS",
    "state": "J"
   },
   "omm": {
    "OBJECT_NAME": "QPS-SAR-7 (TSUKUYOMI-II)",
    "OBJECT_ID": "2024-066F",
    "EPOCH": "2026-06-21T04:57:42.056928",
    "MEAN_MOTION": 15.08969931,
    "ECCENTRICITY": 0.0002522,
    "INCLINATION": 45.6027,
    "RA_OF_ASC_NODE": 224.2413,
    "ARG_OF_PERICENTER": 316.37,
    "MEAN_ANOMALY": 43.6985,
    "EPHEMERIS_TYPE": 0,
    "CLASSIFICATION_TYPE": "U",
    "NORAD_CAT_ID": 59447,
    "ELEMENT_SET_NO": 999,
    "REV_AT_EPOCH": 12083,
    "BSTAR": 0.0003031,
    "MEAN_MOTION_DOT": 0.00004613,
    "MEAN_MOTION_DDOT": 0
   }
  },
  {
   "norad": 60542,
   "name": "QPS-SAR-8 (AMATERU-IV)",
   "intl": "2024-149CC",
   "group": "sar",
   "gcat": {
    "class": "B",
    "category": "IMG-R",
    "owner": "QPS",
    "state": "J"
   },
   "omm": {
    "OBJECT_NAME": "QPS-SAR-8 (AMATERU-IV)",
    "OBJECT_ID": "2024-149CC",
    "EPOCH": "2026-06-20T10:52:51.409056",
    "MEAN_MOTION": 15.04154503,
    "ECCENTRICITY": 0.0004471,
    "INCLINATION": 97.6648,
    "RA_OF_ASC_NODE": 250.5761,
    "ARG_OF_PERICENTER": 101.8607,
    "MEAN_ANOMALY": 258.312,
    "EPHEMERIS_TYPE": 0,
    "CLASSIFICATION_TYPE": "U",
    "NORAD_CAT_ID": 60542,
    "ELEMENT_SET_NO": 999,
    "REV_AT_EPOCH": 10076,
    "BSTAR": 0.00027197,
    "MEAN_MOTION_DOT": 0.00003712,
    "MEAN_MOTION_DDOT": 0
   }
  }
 ]
}
